OBJECT_NAME,OBJECT_ID,EPOCH,MEAN_MOTION,ECCENTRICITY,INCLINATION,RA_OF_ASC_NODE,ARG_OF_PERICENTER,MEAN_ANOMALY,EPHEMERIS_TYPE,CLASSIFICATION_TYPE,NORAD_CAT_ID,ELEMENT_SET_NO,REV_AT_EPOCH,BSTAR,MEAN_MOTION_DOT,MEAN_MOTION_DDOT
LINGQIAO VIDEO A,2015-057B,2026-06-05T17:05:40.434720,14.77376560,.0015711,97.6620,152.0809,311.3776,48.6083,0,U,40959,999,57371,.10204E-3,.678E-5,0
LINGQIAO VIDEO B,2015-057C,2026-06-05T18:10:47.745984,14.77483984,.0015841,97.6585,153.2905,311.2191,48.7654,0,U,40960,999,57376,.15051E-3,.1026E-4,0
JILIN-1,2015-057D,2026-06-05T17:00:08.898048,14.78141131,.0015591,97.6506,156.6454,304.1665,55.8068,0,U,40961,999,57391,.14014E-3,.967E-5,0
FOX-1A (AO-85),2015-058D,2026-06-04T22:38:39.056640,14.90905473,.01298043,64.7764,317.0315,61.3870,300.0228,0,U,40967,999,11174,.31879391E-3,.3528E-4,0
SINOD-D 1,2015-058E,2026-06-05T10:41:33.925056,14.95824911,.011839,64.7763,295.6808,57.7878,303.4649,0,U,40968,999,11490,.35342E-3,.4379E-4,0
ELEKTRO-L 2,2015-074A,2026-06-05T01:28:11.684640,1.00272317,.00013322,6.6638,70.6705,281.5102,268.8844,0,U,41105,999,3838,0,-.106E-5,0
DAMPE,2015-078A,2026-06-05T17:29:36.205728,15.30755798,.0013558,97.4559,162.1399,112.5492,247.7185,0,U,41173,999,58279,.58704E-4,.1671E-4,0
ORBCOMM FM114,2015-081A,2026-06-01T23:30:56.809152,14.58838571,.00015469,47.0052,73.9009,135.7645,224.3365,0,U,41179,999,55553,.16355792E-3,.602E-5,0
ORBCOMM FM110,2015-081D,2026-06-02T23:53:49.713792,14.58854978,.00032303,47.0024,68.5419,358.8742,1.2136,0,U,41182,999,55555,.19639955E-3,.757E-5,0
ORBCOMM FM112,2015-081F,2026-06-05T03:47:17.285280,14.58885738,.0002935,47.0001,327.1297,162.7896,197.3089,0,U,41184,999,55719,.19041E-3,.729E-5,0
ORBCOMM FM113,2015-081G,2026-06-05T04:51:43.729344,14.58845078,.0001524,47.0019,327.2885,173.9999,186.0905,0,U,41185,999,55718,.15023E-3,.539E-5,0
ORBCOMM FM108,2015-081J,2026-06-05T12:10:49.507680,14.58857926,.000231,47.0046,237.4186,171.2053,188.8874,0,U,41187,999,55837,.1844E-3,.7E-5,0
ORBCOMM FM117,2015-081K,2026-06-05T11:21:07.327008,14.58854014,.0002849,47.0008,236.2188,173.2086,186.8838,0,U,41188,999,55841,.16878E-3,.626E-5,0
ORBCOMM FM116,2015-081L,2026-06-05T04:18:38.361888,14.58864242,.0001292,47.0034,327.3957,353.0293,7.0575,0,U,41189,999,55718,.19679249E-3,.759E-5,0
HORYU-4,2016-012D,2026-06-05T08:02:38.707872,15.87524639,.0002385,30.9854,165.5202,199.5119,160.5450,0,U,41340,999,56892,.90645E-3,.259558E-2,0
ZIYUAN 3-02 (ZY 3-02),2016-033A,2026-06-05T16:19:09.998976,15.21366268,.0011877,97.3832,232.6740,335.1481,24.9182,0,U,41556,999,55623,.27133E-3,.6024E-4,0
CARTOSAT-2C,2016-040A,2026-06-05T14:24:18.002304,15.19223374,.0009719,97.4487,216.7370,168.3871,191.7590,0,U,41599,999,55195,.22234E-3,.4619E-4,0
LAPAN-A3,2016-040E,2026-06-05T16:52:58.696896,15.33029886,.0011966,97.1489,153.2274,62.4604,297.7853,0,U,41603,999,55305,.1174E-3,.3678E-4,0
GAOFEN-3,2016-049A,2026-06-05T16:56:36.242592,14.42213598,.0001149,98.4011,164.6656,96.6696,263.4625,0,U,41727,999,51699,.10783E-4,-.8E-7,0
CAS-2T & KS-1Q,2016-066G,2026-06-05T11:11:03.727968,14.44654069,.0342355,98.3816,232.3358,164.9515,196.2178,0,U,41847,999,50310,.25737E-3,.1782E-4,0
YUNHAI-1 01,2016-068A,2026-06-05T17:06:36.432288,14.32697539,.0006531,98.5831,167.8269,70.2958,289.8930,0,U,41857,999,50018,.17088E-3,.421E-5,0
RESOURCESAT-2A,2016-074A,2026-06-05T16:03:11.117952,14.21614480,.000329,98.7525,230.2669,104.5328,255.6215,0,U,41877,999,49266,.2784E-3,.566E-5,0
TANSAT,2016-081A,2026-06-05T17:37:38.942400,14.59941149,.0020473,98.5363,156.6540,348.6381,11.4353,0,U,41898,999,50295,.10349E-3,.447E-5,0
JILIN-1 03,2017-002B,2026-06-05T17:31:36.338016,15.41286507,.0005258,97.1952,163.9788,192.1795,167.9326,0,U,41914,999,52009,.33043E-3,.13685E-3,0
CARTOSAT-2D,2017-008A,2026-06-05T15:10:45.234336,15.19236200,.0003728,97.4122,216.1531,285.1069,74.9753,0,U,41948,999,51582,-.99469E-4,-.216E-4,0
