LINGQIAO VIDEO A        
1 40959U 15057B   26156.71227355  .00000678  00000+0  10204-3 0  9997
2 40959  97.6620 152.0809 0015711 311.3776  48.6083 14.77376560573715
LINGQIAO VIDEO B        
1 40960U 15057C   26156.75749706  .00001026  00000+0  15051-3 0  9995
2 40960  97.6585 153.2905 0015841 311.2191  48.7654 14.77483984573760
JILIN-1                 
1 40961U 15057D   26156.70843632  .00000967  00000+0  14014-3 0  9995
2 40961  97.6506 156.6454 0015591 304.1665  55.8068 14.78141131573910
FOX-1A (AO-85)          
1 40967U 15058D   26155.94350760  .00003528  00000+0  31879-3 0  9996
2 40967  64.7764 317.0315 0129804  61.3870 300.0228 14.90905473111742
SINOD-D 1               
1 40968U 15058E   26156.44553154  .00004379  00000+0  35342-3 0  9999
2 40968  64.7763 295.6808 0118390  57.7878 303.4649 14.95824911114902
ELEKTRO-L 2             
1 41105U 15074A   26156.06124635 -.00000106  00000+0  00000+0 0  9991
2 41105   6.6638  70.6705 0001332 281.5102 268.8844  1.00272317 38380
DAMPE                   
1 41173U 15078A   26156.72889127  .00001671  00000+0  58704-4 0  9993
2 41173  97.4559 162.1399 0013558 112.5492 247.7185 15.30755798582799
ORBCOMM FM114           
1 41179U 15081A   26152.97982418  .00000602  00000+0  16356-3 0  9992
2 41179  47.0052  73.9009 0001546 135.7645 224.3365 14.58838571555535
ORBCOMM FM110           
1 41182U 15081D   26153.99571428  .00000757  00000+0  19640-3 0  9994
2 41182  47.0024  68.5419 0003230 358.8742   1.2136 14.58854978555550
ORBCOMM FM112           
1 41184U 15081F   26156.15783895  .00000729  00000+0  19041-3 0  9994
2 41184  47.0001 327.1297 0002935 162.7896 197.3089 14.58885738557192
ORBCOMM FM113           
1 41185U 15081G   26156.20258946  .00000539  00000+0  15023-3 0  9990
2 41185  47.0019 327.2885 0001524 173.9999 186.0905 14.58845078557181
ORBCOMM FM108           
1 41187U 15081J   26156.50751745  .00000700  00000+0  18440-3 0  9996
2 41187  47.0046 237.4186 0002310 171.2053 188.8874 14.58857926558377
ORBCOMM FM117           
1 41188U 15081K   26156.47300147  .00000626  00000+0  16878-3 0  9999
2 41188  47.0008 236.2188 0002849 173.2086 186.8838 14.58854014558418
ORBCOMM FM116           
1 41189U 15081L   26156.17961067  .00000759  00000+0  19679-3 0  9990
2 41189  47.0034 327.3957 0001292 353.0293   7.0575 14.58864242557182
HORYU-4                 
1 41340U 16012D   26156.33517023  .00259558  00000+0  90645-3 0  9996
2 41340  30.9854 165.5202 0002385 199.5119 160.5450 15.87524639568928
ZIYUAN 3-02 (ZY 3-02)   
1 41556U 16033A   26156.67997684  .00006024  00000+0  27133-3 0  9990
2 41556  97.3832 232.6740 0011877 335.1481  24.9182 15.21366268556235
CARTOSAT-2C             
1 41599U 16040A   26156.60020836  .00004619  00000+0  22234-3 0  9999
2 41599  97.4487 216.7370 0009719 168.3871 191.7590 15.19223374551959
LAPAN-A3                
1 41603U 16040E   26156.70345714  .00003678  00000+0  11740-3 0  9995
2 41603  97.1489 153.2274 0011966  62.4604 297.7853 15.33029886553057
GAOFEN-3                
1 41727U 16049A   26156.70597503 -.00000008  00000+0  10783-4 0  9998
2 41727  98.4011 164.6656 0001149  96.6696 263.4625 14.42213598516994
CAS-2T & KS-1Q          
1 41847U 16066G   26156.46601537  .00001782  00000+0  25737-3 0  9999
2 41847  98.3816 232.3358 0342355 164.9515 196.2178 14.44654069503106
YUNHAI-1 01             
1 41857U 16068A   26156.71292167  .00000421  00000+0  17088-3 0  9994
2 41857  98.5831 167.8269 0006531  70.2958 289.8930 14.32697539500188
RESOURCESAT-2A          
1 41877U 16074A   26156.66887868  .00000566  00000+0  27840-3 0  9992
2 41877  98.7525 230.2669 0003290 104.5328 255.6215 14.21614480492664
TANSAT                  
1 41898U 16081A   26156.73447850  .00000447  00000+0  10349-3 0  9998
2 41898  98.5363 156.6540 0020473 348.6381  11.4353 14.59941149502957
JILIN-1 03              
1 41914U 17002B   26156.73028169  .00013685  00000+0  33043-3 0  9993
2 41914  97.1952 163.9788 0005258 192.1795 167.9326 15.41286507520099
CARTOSAT-2D             
1 41948U 17008A   26156.63246799 -.00002160  00000+0 -99469-4 0  9999
2 41948  97.4122 216.1531 0003728 285.1069  74.9753 15.19236200515828
